OBJECT_NAME,OBJECT_ID,EPOCH,MEAN_MOTION,ECCENTRICITY,INCLINATION,RA_OF_ASC_NODE,ARG_OF_PERICENTER,MEAN_ANOMALY,EPHEMERIS_TYPE,CLASSIFICATION_TYPE,NORAD_CAT_ID,ELEMENT_SET_NO,REV_AT_EPOCH,BSTAR,MEAN_MOTION_DOT,MEAN_MOTION_DDOT
STARLINK-37034,2026-050E,2026-07-17T12:50:34.978848,15.34389100,.00012141,53.1601,21.4635,109.3183,250.7951,0,U,68171,999,2059,.8400069E-4,.2462E-4,0
STARLINK-37031,2026-050F,2026-07-16T16:55:28.592256,15.34395065,.00012001,53.1596,25.5314,87.9956,272.1184,0,U,68172,999,2046,.50297647E-3,.16653E-3,0
STARLINK-37076,2026-050G,2026-07-17T11:50:06.984960,15.34399730,.00012425,53.1603,21.9089,75.1164,284.9976,0,U,68173,999,2058,.21199364E-3,.6793E-4,0
STARLINK-37078,2026-050H,2026-07-17T05:22:48.838368,15.34400992,.0001406,53.1601,23.0690,99.9441,260.1720,0,U,68174,999,2054,.32067149E-3,.10474E-3,0
STARLINK-36886,2026-050J,2026-07-17T12:20:17.075328,15.34393162,.00012488,53.1602,21.3255,98.3346,261.7798,0,U,68175,999,2059,.19377914E-3,.6175E-4,0
STARLINK-36905,2026-050K,2026-07-17T05:19:46.883424,15.34393779,.00013056,53.1600,23.0556,104.0915,256.0233,0,U,68176,999,2054,.21558306E-3,.6913E-4,0
STARLINK-36668,2026-050L,2026-07-16T22:25:12.626688,15.34407868,.00012636,53.1592,24.1288,50.2469,309.8645,0,U,68177,999,2050,.46392828E-3,.15334E-3,0
STARLINK-36677,2026-050M,2026-07-17T12:44:31.335936,15.34403510,.00014678,53.1596,21.4258,98.9415,261.1754,0,U,68178,999,2059,.29980532E-3,.9767E-4,0
STARLINK-37052,2026-050N,2026-07-17T12:26:20.644800,15.34403218,.00012047,53.1595,21.3620,102.1935,257.9203,0,U,68179,999,2059,.32565953E-3,.10643E-3,0
STARLINK-37035,2026-050P,2026-07-16T22:34:17.424480,15.34404197,.00007497,53.1588,24.1568,55.7045,304.4029,0,U,68180,999,2050,.12150582E-3,.3732E-4,0
STARLINK-37032,2026-050Q,2026-07-17T13:02:43.656576,15.34406840,.00013605,53.1585,21.5192,84.3819,275.7339,0,U,68181,999,2059,.38908499E-3,.12795E-3,0
STARLINK-37082,2026-050R,2026-07-16T21:27:46.454688,15.34404104,.00012895,53.1590,24.5783,90.1471,269.9679,0,U,68182,999,2049,.30481099E-3,.9937E-4,0
STARLINK-37102,2026-050S,2026-07-16T16:16:05.557440,15.34399471,.00012936,53.1593,25.3642,95.6299,264.4851,0,U,68183,999,2046,.36343431E-3,.11922E-3,0
STARLINK-36964,2026-050T,2026-07-17T12:56:38.405760,15.34404889,.0002188,53.1608,21.4861,112.6555,247.4679,0,U,68184,999,2059,.31288619E-3,.10211E-3,0
STARLINK-37061,2026-050U,2026-07-17T12:02:06.537120,15.34401783,.00018791,53.1610,21.2565,62.7695,297.3499,0,U,68185,999,2059,.29921579E-3,.9747E-4,0
STARLINK-37079,2026-050V,2026-07-16T12:50:19.278240,15.34399015,.0001389,53.1602,25.8993,107.5394,252.5760,0,U,68186,999,2044,.57171E-3,.18988E-3,0
STARLINK-37006,2026-050W,2026-07-17T11:47:04.346592,15.34406623,.00025049,53.1599,21.8939,84.1257,276.0031,0,U,68187,999,2058,.17741075E-3,.5623E-4,0
STARLINK-36305,2026-050Y,2026-07-16T12:29:14.136000,15.34399460,.0001562,53.1602,26.5037,87.7009,272.4173,0,U,68189,999,2033,.35413E-3,.11607E-3,0
STARLINK-37071,2026-050Z,2026-07-17T15:00:44.178048,15.34396784,.00011895,53.1594,21.3072,89.1128,271.0011,0,U,68190,999,2060,.15792131E-3,.4962E-4,0
STARLINK-37091,2026-050AA,2026-07-17T12:53:36.731616,15.34408321,.00021473,53.1587,21.4628,74.7565,285.3675,0,U,68191,999,2059,.4053649E-3,.13348E-3,0
STARLINK-37098,2026-050AB,2026-07-17T12:41:29.799168,15.34400602,.00015227,53.1602,21.4170,88.3531,271.7646,0,U,68192,999,2059,.29484168E-3,.9598E-4,0
STARLINK-37090,2026-050AC,2026-07-17T12:59:38.279328,15.34446163,.00013974,53.1608,21.4939,120.8555,239.2585,0,U,68193,999,2059,.61752649E-3,.20576E-3,0
STARLINK-37093,2026-050AD,2026-07-17T12:47:33.063648,15.34405705,.00014039,53.1591,21.4421,99.3420,260.7741,0,U,68194,999,2059,.41326459E-3,.13614E-3,0
STARLINK-37058,2026-050AE,2026-07-17T12:14:13.655328,15.34416355,.00015865,53.1590,21.2955,91.7485,268.3699,0,U,68195,999,1903,.34727472E-3,.11381E-3,0
YAOGAN-50 02,2026-051A,2026-07-13T13:38:09.854304,13.83256148,.0000957,141.9892,95.0065,265.2350,94.8261,0,U,68196,999,1664,.66659E-4,.26E-5,0
2026-052A,2026-052A,2026-07-13T15:43:16.216320,15.11227396,.00128228,97.5328,269.0296,209.9471,150.1027,0,U,68198,999,1804,.17802164E-3,.2932E-4,0
YUXING-3 06,2026-052B,2026-07-17T16:38:35.420064,15.11091989,.0012345,97.5319,273.0092,197.4768,162.6039,0,U,68199,999,1865,.16282E-3,.2666E-4,0
2026-052C,2026-052C,2026-07-17T03:53:36.056832,15.10949026,.00013997,97.5353,272.4771,70.7831,289.3551,0,U,68200,999,1856,.15164652E-3,.2465E-4,0
2026-052D,2026-052D,2026-07-13T16:24:27.749664,15.11684514,.00106186,97.5329,269.1425,209.7584,150.3044,0,U,68201,999,1805,.22718508E-3,.3806E-4,0
2026-052E,2026-052E,2026-07-13T16:25:30.024192,15.11673122,.00108019,97.5304,269.1468,215.1769,144.8749,0,U,68202,999,1805,.22533688E-3,.3774E-4,0
