STARLINK-37034          
1 68171U 26050E   26198.53512707  .00002462  00000+0  84001-4 0  9992
2 68171  53.1601  21.4635 0001214 109.3183 250.7951 15.34389100 20594
STARLINK-37031          
1 68172U 26050F   26197.70519204  .00016653  00000+0  50298-3 0  9997
2 68172  53.1596  25.5314 0001200  87.9956 272.1184 15.34395065 20460
STARLINK-37076          
1 68173U 26050G   26198.49313640  .00006793  00000+0  21199-3 0  9993
2 68173  53.1603  21.9089 0001242  75.1164 284.9976 15.34399730 20581
STARLINK-37078          
1 68174U 26050H   26198.22417637  .00010474  00000+0  32067-3 0  9993
2 68174  53.1601  23.0690 0001406  99.9441 260.1720 15.34400992 20547
STARLINK-36886          
1 68175U 26050J   26198.51408652  .00006175  00000+0  19378-3 0  9996
2 68175  53.1602  21.3255 0001248  98.3346 261.7798 15.34393162 20595
STARLINK-36905          
1 68176U 26050K   26198.22207041  .00006913  00000+0  21558-3 0  9997
2 68176  53.1600  23.0556 0001305 104.0915 256.0233 15.34393779 20548
STARLINK-36668          
1 68177U 26050L   26197.93417392  .00015334  00000+0  46393-3 0  9998
2 68177  53.1592  24.1288 0001263  50.2469 309.8645 15.34407868 20507
STARLINK-36677          
1 68178U 26050M   26198.53091824  .00009767  00000+0  29981-3 0  9991
2 68178  53.1596  21.4258 0001467  98.9415 261.1754 15.34403510 20595
STARLINK-37052          
1 68179U 26050N   26198.51829450  .00010643  00000+0  32566-3 0  9992
2 68179  53.1595  21.3620 0001204 102.1935 257.9203 15.34403218 20598
STARLINK-37035          
1 68180U 26050P   26197.94047945  .00003732  00000+0  12151-3 0  9990
2 68180  53.1588  24.1568 0000749  55.7045 304.4029 15.34404197 20504
STARLINK-37032          
1 68181U 26050Q   26198.54356084  .00012795  00000+0  38908-3 0  9992
2 68181  53.1585  21.5192 0001360  84.3819 275.7339 15.34406840 20593
STARLINK-37082          
1 68182U 26050R   26197.89428767  .00009937  00000+0  30481-3 0  9990
2 68182  53.1590  24.5783 0001289  90.1471 269.9679 15.34404104 20490
STARLINK-37102          
1 68183U 26050S   26197.67784210  .00011922  00000+0  36343-3 0  9995
2 68183  53.1593  25.3642 0001293  95.6299 264.4851 15.34399471 20469
STARLINK-36964          
1 68184U 26050T   26198.53933340  .00010211  00000+0  31289-3 0  9996
2 68184  53.1608  21.4861 0002188 112.6555 247.4679 15.34404889 20599
STARLINK-37061          
1 68185U 26050U   26198.50146455  .00009747  00000+0  29922-3 0  9990
2 68185  53.1610  21.2565 0001879  62.7695 297.3499 15.34401783 20592
STARLINK-37079          
1 68186U 26050V   26197.53494535  .00018988  00000+0  57171-3 0  9992
2 68186  53.1602  25.8993 0001389 107.5394 252.5760 15.34399015 20441
STARLINK-37006          
1 68187U 26050W   26198.49102253  .00005623  00000+0  17741-3 0  9993
2 68187  53.1599  21.8939 0002504  84.1257 276.0031 15.34406623 20582
STARLINK-36305          
1 68189U 26050Y   26197.52030250  .00011607  00000+0  35413-3 0  9990
2 68189  53.1602  26.5037 0001562  87.7009 272.4173 15.34399460 20337
STARLINK-37071          
1 68190U 26050Z   26198.62551132  .00004962  00000+0  15792-3 0  9995
2 68190  53.1594  21.3072 0001189  89.1128 271.0011 15.34396784 20606
STARLINK-37091          
1 68191U 26050AA  26198.53723069  .00013348  00000+0  40536-3 0  9998
2 68191  53.1587  21.4628 0002147  74.7565 285.3675 15.34408321 20590
STARLINK-37098          
1 68192U 26050AB  26198.52881712  .00009598  00000+0  29484-3 0  9999
2 68192  53.1602  21.4170 0001522  88.3531 271.7646 15.34400602 20592
STARLINK-37090          
1 68193U 26050AC  26198.54141527  .00020576  00000+0  61753-3 0  9999
2 68193  53.1608  21.4939 0001397 120.8555 239.2585 15.34446163 20593
STARLINK-37093          
1 68194U 26050AD  26198.53302157  .00013614  00000+0  41326-3 0  9996
2 68194  53.1591  21.4421 0001403  99.3420 260.7741 15.34405705 20590
STARLINK-37058          
1 68195U 26050AE  26198.50988027  .00011381  00000+0  34727-3 0  9996
2 68195  53.1590  21.2955 0001586  91.7485 268.3699 15.34416355 19035
YAOGAN-50 02            
1 68196U 26051A   26194.56816961  .00000260  00000+0  66659-4 0  9991
2 68196 141.9892  95.0065 0000957 265.2350  94.8261 13.83256148 16643
2026-052A               
1 68198U 26052A   26194.65504880  .00002932  00000+0  17802-3 0  9991
2 68198  97.5328 269.0296 0012822 209.9471 150.1027 15.11227396 18045
YUXING-3 06             
1 68199U 26052B   26198.69346551  .00002666  00000+0  16282-3 0  9994
2 68199  97.5319 273.0092 0012345 197.4768 162.6039 15.11091989 18650
2026-052C               
1 68200U 26052C   26198.16222288  .00002465  00000+0  15165-3 0  9995
2 68200  97.5353 272.4771 0001399  70.7831 289.3551 15.10949026 18568
2026-052D               
1 68201U 26052D   26194.68365451  .00003806  00000+0  22719-3 0  9992
2 68201  97.5329 269.1425 0010618 209.7584 150.3044 15.11684514 18051
2026-052E               
1 68202U 26052E   26194.68437528  .00003774  00000+0  22534-3 0  9997
2 68202  97.5304 269.1468 0010801 215.1769 144.8749 15.11673122 18055
